[{"OBJECT_NAME":"STARLINK-30835","OBJECT_ID":"2023-170P","EPOCH":"2026-03-09T22:00:01.999584","MEAN_MOTION":15.26734446,"ECCENTRICITY":0.00013973,"INCLINATION":42.9999,"RA_OF_ASC_NODE":192.6851,"ARG_OF_PERICENTER":265.0727,"MEAN_ANOMALY":222.1467,"EPHEMERIS_TYPE":0,"CLASSIFICATION_TYPE":"U","NORAD_CAT_ID":58219,"ELEMENT_SET_NO":999,"REV_AT_EPOCH":568,"BSTAR":0.0008521032,"MEAN_MOTION_DOT":0.00022663,"MEAN_MOTION_DDOT":0},{"OBJECT_NAME":"TRANSPORTER-14 OBJECT AC","OBJECT_ID":"2025-135AC","EPOCH":"2026-03-09T19:42:26.378496","MEAN_MOTION":15.26845403,"ECCENTRICITY":0.00010083,"INCLINATION":97.4518,"RA_OF_ASC_NODE":185.7428,"ARG_OF_PERICENTER":268.0523,"MEAN_ANOMALY":92.06,"EPHEMERIS_TYPE":0,"CLASSIFICATION_TYPE":"U","NORAD_CAT_ID":64554,"ELEMENT_SET_NO":999,"REV_AT_EPOCH":3982,"BSTAR":0.0009323368,"MEAN_MOTION_DOT":0.00024574,"MEAN_MOTION_DDOT":0}]
